start=new Date('2022-10-22T00:00:00.000Z').valueOf();
sats=[{"FILE":"3628413","MEAN_MOTION_DDOT":"0.0000000000000","EPOCH":"2022-10-21T22:00:00.999936","CLASSIFICATION_TYPE":"U","REF_FRAME":"TEME","GP_ID":"215846145","OBJECT_TYPE":"PAYLOAD","RA_OF_ASC_NODE":"227.2352","PERIOD":"95.437","MEAN_ELEMENT_THEORY":"SGP4","RCS_SIZE":"LARGE","EPHEMERIS_TYPE":"0","DECAY_DATE":null,"APOAPSIS":"540.896","ARG_OF_PERICENTER":"52.3071","OBJECT_NAME":"STARLINK-4279","BSTAR":"-0.00052752000000","TLE_LINE1":"1 53018U 22076AJ  22294.91667824 -.00008675  00000-0 -52752-3 0  9998","MEAN_ANOMALY":"323.7147","TIME_SYSTEM":"UTC","MEAN_MOTION":"15.08843486","PERIAPSIS":"538.574","SEMIMAJOR_AXIS":"6917.870","MEAN_MOTION_DOT":"-0.00008675","TLE_LINE2":"2 53018  53.2175 227.2352 0001678  52.3071 323.7147 15.08843486  1303","CENTER_NAME":"EARTH","REV_AT_EPOCH":"130","INCLINATION":"53.2175","ELEMENT_SET_NO":"999","NORAD_CAT_ID":"53018","SITE":"AFETR","ECCENTRICITY":"0.00016780","OBJECT_ID":"2022-076AJ","COUNTRY_CODE":"US","LAUNCH_DATE":"2022-07-07"},{"RCS_SIZE":"LARGE","EPHEMERIS_TYPE":"0","DECAY_DATE":null,"APOAPSIS":"540.801","PERIOD":"95.436","MEAN_ELEMENT_THEORY":"SGP4","BSTAR":"-0.00252430000000","TLE_LINE1":"1 53019U 22076AK  22294.91667824 -.00040273  00000-0 -25243-2 0  9993","MEAN_ANOMALY":"65.2294","OBJECT_NAME":"STARLINK-4282","ARG_OF_PERICENTER":"55.9603","MEAN_MOTION_DDOT":"0.0000000000000","EPOCH":"2022-10-21T22:00:00.999936","CLASSIFICATION_TYPE":"U","FILE":"3628413","GP_ID":"215845565","RA_OF_ASC_NODE":"227.2182","OBJECT_TYPE":"PAYLOAD","REF_FRAME":"TEME","NORAD_CAT_ID":"53019","ELEMENT_SET_NO":"999","ECCENTRICITY":"0.00016670","SITE":"AFETR","INCLINATION":"53.2173","OBJECT_ID":"2022-076AK","COUNTRY_CODE":"US","LAUNCH_DATE":"2022-07-07","MEAN_MOTION_DOT":"-0.00040273","TIME_SYSTEM":"UTC","SEMIMAJOR_AXIS":"6917.783","PERIAPSIS":"538.495","MEAN_MOTION":"15.08871788","REV_AT_EPOCH":"130","TLE_LINE2":"2 53019  53.2173 227.2182 0001667  55.9603  65.2294 15.08871788  1308","CENTER_NAME":"EARTH"},{"LAUNCH_DATE":"2022-07-07","COUNTRY_CODE":"US","OBJECT_ID":"2022-076AL","SITE":"AFETR","ECCENTRICITY":"0.00014770","ELEMENT_SET_NO":"999","NORAD_CAT_ID":"53020","INCLINATION":"53.2170","REV_AT_EPOCH":"130","CENTER_NAME":"EARTH","TLE_LINE2":"2 53020  53.2170 227.2329 0001477  70.7308 330.4411 15.08865171  1303","MEAN_MOTION_DOT":"-0.00044935","SEMIMAJOR_AXIS":"6917.803","PERIAPSIS":"538.647","MEAN_MOTION":"15.08865171","TIME_SYSTEM":"UTC","TLE_LINE1":"1 53020U 22076AL  22294.91667824 -.00044935  00000-0 -28210-2 0  9991","MEAN_ANOMALY":"330.4411","BSTAR":"-0.00282100000000","OBJECT_NAME":"STARLINK-4287","ARG_OF_PERICENTER":"70.7308","APOAPSIS":"540.690","DECAY_DATE":null,"RCS_SIZE":"LARGE","EPHEMERIS_TYPE":"0","MEAN_ELEMENT_THEORY":"SGP4","PERIOD":"95.436","RA_OF_ASC_NODE":"227.2329","OBJECT_TYPE":"PAYLOAD","GP_ID":"215846544","REF_FRAME":"TEME","CLASSIFICATION_TYPE":"U","EPOCH":"2022-10-21T22:00:00.999936","MEAN_MOTION_DDOT":"0.0000000000000","FILE":"3628413"},{"INCLINATION":"53.2161","NORAD_CAT_ID":"53021","ELEMENT_SET_NO":"999","ECCENTRICITY":"0.00015250","SITE":"AFETR","OBJECT_ID":"2022-076AM","COUNTRY_CODE":"US","LAUNCH_DATE":"2022-07-07","TIME_SYSTEM":"UTC","MEAN_MOTION":"15.08866621","PERIAPSIS":"538.609","SEMIMAJOR_AXIS":"6917.799","MEAN_MOTION_DOT":"-0.00052193","TLE_LINE2":"2 53021  53.2161 227.2154 0001525  58.1992 102.9915 15.08866621  1305","CENTER_NAME":"EARTH","REV_AT_EPOCH":"130","PERIOD":"95.436","MEAN_ELEMENT_THEORY":"SGP4","RCS_SIZE":"LARGE","EPHEMERIS_TYPE":"0","APOAPSIS":"540.719","DECAY_DATE":null,"OBJECT_NAME":"STARLINK-4203","ARG_OF_PERICENTER":"58.1992","BSTAR":"-0.00328280000000","TLE_LINE1":"1 53021U 22076AM  22294.91667824 -.00052193  00000-0 -32828-2 0  9997","MEAN_ANOMALY":"102.9915","FILE":"3628413","MEAN_MOTION_DDOT":"0.0000000000000","CLASSIFICATION_TYPE":"U","EPOCH":"2022-10-21T22:00:00.999936","REF_FRAME":"TEME","GP_ID":"215845820","OBJECT_TYPE":"PAYLOAD","RA_OF_ASC_NODE":"227.2154"},{"TIME_SYSTEM":"UTC","MEAN_MOTION":"15.08883274","PERIAPSIS":"538.365","SEMIMAJOR_AXIS":"6917.748","MEAN_MOTION_DOT":"-0.00054830","TLE_LINE2":"2 53022  53.2163 227.2308 0001804  55.2210  45.9431 15.08883274  1302","CENTER_NAME":"EARTH","REV_AT_EPOCH":"130","INCLINATION":"53.2163","ELEMENT_SET_NO":"999","NORAD_CAT_ID":"53022","ECCENTRICITY":"0.00018040","SITE":"AFETR","OBJECT_ID":"2022-076AN","COUNTRY_CODE":"US","LAUNCH_DATE":"2022-07-07","FILE":"3628413","MEAN_MOTION_DDOT":"0.0000000000000","EPOCH":"2022-10-21T22:00:00.999936","CLASSIFICATION_TYPE":"U","REF_FRAME":"TEME","GP_ID":"215845728","OBJECT_TYPE":"PAYLOAD","RA_OF_ASC_NODE":"227.2308","PERIOD":"95.435","MEAN_ELEMENT_THEORY":"SGP4","EPHEMERIS_TYPE":"0","RCS_SIZE":"LARGE","APOAPSIS":"540.861","DECAY_DATE":null,"OBJECT_NAME":"STARLINK-4216","ARG_OF_PERICENTER":"55.2210","BSTAR":"-0.00344920000000","TLE_LINE1":"1 53022U 22076AN  22294.91667824 -.00054830  00000-0 -34492-2 0  9997","MEAN_ANOMALY":"45.9431"},{"MEAN_MOTION_DDOT":"0.0000000000000","CLASSIFICATION_TYPE":"U","EPOCH":"2022-10-21T22:00:00.999936","FILE":"3628413","GP_ID":"215845983","RA_OF_ASC_NODE":"227.2154","OBJECT_TYPE":"PAYLOAD","REF_FRAME":"TEME","RCS_SIZE":"LARGE","EPHEMERIS_TYPE":"0","DECAY_DATE":null,"APOAPSIS":"540.710","PERIOD":"95.437","MEAN_ELEMENT_THEORY":"SGP4","BSTAR":"-0.00041264000000","MEAN_ANOMALY":"130.5217","TLE_LINE1":"1 53023U 22076AP  22294.91667824 -.00006850  00000-0 -41264-3 0  9993","ARG_OF_PERICENTER":"65.4693","OBJECT_NAME":"STARLINK-4284","MEAN_MOTION_DOT":"-0.00006850","TIME_SYSTEM":"UTC","SEMIMAJOR_AXIS":"6917.872","PERIAPSIS":"538.765","MEAN_MOTION":"15.08842605","REV_AT_EPOCH":"130","TLE_LINE2":"2 53023  53.2163 227.2154 0001406  65.4693 130.5217 15.08842605  1304","CENTER_NAME":"EARTH","ELEMENT_SET_NO":"999","NORAD_CAT_ID":"53023","ECCENTRICITY":"0.00014060","SITE":"AFETR","INCLINATION":"53.2163","OBJECT_ID":"2022-076AP","COUNTRY_CODE":"US","LAUNCH_DATE":"2022-07-07"},{"REV_AT_EPOCH":"130","CENTER_NAME":"EARTH","TLE_LINE2":"2 53024  53.2161 227.2154 0001489  58.3567 122.8141 15.08847787  1301","MEAN_MOTION_DOT":"-0.00005217","SEMIMAJOR_AXIS":"6917.857","PERIAPSIS":"538.692","MEAN_MOTION":"15.08847787","TIME_SYSTEM":"UTC","COUNTRY_CODE":"US","LAUNCH_DATE":"2022-07-07","OBJECT_ID":"2022-076AQ","NORAD_CAT_ID":"53024","ELEMENT_SET_NO":"999","SITE":"AFETR","ECCENTRICITY":"0.00014890","INCLINATION":"53.2161","OBJECT_TYPE":"PAYLOAD","RA_OF_ASC_NODE":"227.2154","GP_ID":"215846310","REF_FRAME":"TEME","MEAN_MOTION_DDOT":"0.0000000000000","CLASSIFICATION_TYPE":"U","EPOCH":"2022-10-21T22:00:00.999936","FILE":"3628413","MEAN_ANOMALY":"122.8141","TLE_LINE1":"1 53024U 22076AQ  22294.91667824 -.00005217  00000-0 -30986-3 0  9999","BSTAR":"-0.00030986000000","ARG_OF_PERICENTER":"58.3567","OBJECT_NAME":"STARLINK-4289","DECAY_DATE":null,"APOAPSIS":"540.752","EPHEMERIS_TYPE":"0","RCS_SIZE":"LARGE","MEAN_ELEMENT_THEORY":"SGP4","PERIOD":"95.437"},{"ELEMENT_SET_NO":"999","NORAD_CAT_ID":"53025","ECCENTRICITY":"0.00017570","SITE":"AFETR","INCLINATION":"53.2171","COUNTRY_CODE":"US","LAUNCH_DATE":"2022-07-07","OBJECT_ID":"2022-076AR","MEAN_MOTION_DOT":"-0.00012495","PERIAPSIS":"538.490","SEMIMAJOR_AXIS":"6917.841","MEAN_MOTION":"15.08853041","TIME_SYSTEM":"UTC","REV_AT_EPOCH":"130","CENTER_NAME":"EARTH","TLE_LINE2":"2 53025  53.2171 227.2152 0001757  57.7902 163.3803 15.08853041  1300","DECAY_DATE":null,"APOAPSIS":"540.921","EPHEMERIS_TYPE":"0","RCS_SIZE":"LARGE","MEAN_ELEMENT_THEORY":"SGP4","PERIOD":"95.437","MEAN_ANOMALY":"163.3803","TLE_LINE1":"1 53025U 22076AR  22294.91667824 -.00012495  00000-0 -76800-3 0  9991","BSTAR":"-0.00076800000000","ARG_OF_PERICENTER":"57.7902","OBJECT_NAME":"STARLINK-4218","MEAN_MOTION_DDOT":"0.0000000000000","CLASSIFICATION_TYPE":"U","EPOCH":"2022-10-21T22:00:00.999936","FILE":"3628413","OBJECT_TYPE":"PAYLOAD","RA_OF_ASC_NODE":"227.2152","GP_ID":"215845403","REF_FRAME":"TEME"},{"INCLINATION":"53.2160","SITE":"AFETR","ECCENTRICITY":"0.00017690","NORAD_CAT_ID":"53026","ELEMENT_SET_NO":"999","LAUNCH_DATE":"2022-07-07","COUNTRY_CODE":"US","OBJECT_ID":"2022-076AS","MEAN_MOTION":"15.08868948","PERIAPSIS":"538.433","SEMIMAJOR_AXIS":"6917.792","TIME_SYSTEM":"UTC","MEAN_MOTION_DOT":"-0.00050962","CENTER_NAME":"EARTH","TLE_LINE2":"2 53026  53.2160 227.2169 0001769  54.8702  86.2940 15.08868948  1303","REV_AT_EPOCH":"130","MEAN_ELEMENT_THEORY":"SGP4","PERIOD":"95.436","DECAY_DATE":null,"APOAPSIS":"540.881","RCS_SIZE":"LARGE","EPHEMERIS_TYPE":"0","OBJECT_NAME":"STARLINK-4119","ARG_OF_PERICENTER":"54.8702","MEAN_ANOMALY":"86.2940","TLE_LINE1":"1 53026U 22076AS  22294.91667824 -.00050962  00000-0 -32041-2 0  9991","BSTAR":"-0.00320410000000","FILE":"3628413","CLASSIFICATION_TYPE":"U","EPOCH":"2022-10-21T22:00:00.999936","MEAN_MOTION_DDOT":"0.0000000000000","REF_FRAME":"TEME","RA_OF_ASC_NODE":"227.2169","OBJECT_TYPE":"PAYLOAD","GP_ID":"215846146"},{"CLASSIFICATION_TYPE":"U","EPOCH":"2022-10-21T22:00:00.999936","MEAN_MOTION_DDOT":"0.0000000000000","FILE":"3628413","RA_OF_ASC_NODE":"227.2037","OBJECT_TYPE":"PAYLOAD","GP_ID":"215845566","REF_FRAME":"TEME","DECAY_DATE":null,"APOAPSIS":"540.556","RCS_SIZE":"LARGE","EPHEMERIS_TYPE":"0","MEAN_ELEMENT_THEORY":"SGP4","PERIOD":"95.436","TLE_LINE1":"1 53027U 22076AT  22294.91667824 -.00044200  00000-0 -27739-2 0  9998","MEAN_ANOMALY":"193.7913","BSTAR":"-0.00277390000000","ARG_OF_PERICENTER":"87.3802","OBJECT_NAME":"STARLINK-4158","MEAN_MOTION_DOT":"-0.00044200","PERIAPSIS":"538.751","MEAN_MOTION":"15.08870135","SEMIMAJOR_AXIS":"6917.788","TIME_SYSTEM":"UTC","REV_AT_EPOCH":"130","CENTER_NAME":"EARTH","TLE_LINE2":"2 53027  53.2191 227.2037 0001305  87.3802 193.7913 15.08870135  1305","ECCENTRICITY":"0.00013050","SITE":"AFETR","ELEMENT_SET_NO":"999","NORAD_CAT_ID":"53027","INCLINATION":"53.2191","LAUNCH_DATE":"2022-07-07","COUNTRY_CODE":"US","OBJECT_ID":"2022-076AT"}];
